SUOMI NPP               
1 37849U 11061A   26171.30095768  .00000062  00000+0  50509-4 0  9995
2 37849  98.7953 112.1558 0001356 359.4380   0.6794 14.19517972758882
YAOGAN-12               
1 37875U 11066B   26171.34645311  .00003470  00000+0  13492-3 0  9993
2 37875  97.1139 209.7666 0009065 203.4717 156.6110 15.26629429812526
BEIDOU-2 M4             
1 38251U 12018B   26170.80579080 -.00000086  00000+0  00000+0 0  9997
2 38251  55.6555 304.0008 0011344 275.1430  84.7206  1.86229250 95996
ARIRANG-3 (KOMPSAT-3)   
1 38338U 12025B   26171.31737661  .00000327  00000+0  74138-4 0  9994
2 38338  98.1172 128.7233 0006759 101.5707 258.6254 14.62208471751807
METOP-B                 
1 38771U 12049A   26171.28683890  .00000061  00000+0  47761-4 0  9998
2 38771  98.6502 222.7241 0002048  11.1813 348.9410 14.21440199713709
SJ-9A                   
1 38860U 12056A   26171.26300718  .00000680  00000+0  84575-4 0  9999
2 38860  97.6710 143.1033 0024068 245.8832 113.9867 14.85483184700046
COSMOS 2484 (RODNIK-S 6)
1 39059U 13001C   26171.28532419  .00000047  00000+0  26586-3 0  9992
2 39059  82.5004 219.9668 0026739  29.9983 330.2622 12.42939440608948
SARAL                   
1 39086U 13009A   26171.25312327  .00000051  00000+0  34759-4 0  9998
2 39086  98.5558 357.7815 0000619 284.3528  75.7587 14.32856554696049
STRAND-1                
1 39090U 13009E   26170.98012229  .00000194  00000+0  79707-4 0  9990
2 39090  98.3923 351.1457 0007876 216.0202 144.0455 14.37164594697463
BRITE-AUSTRIA           
1 39091U 13009F   26170.29768615  .00000120  00000+0  55501-4 0  9997
2 39091  98.3996 349.6811 0009231 229.4697 130.5686 14.36542792697356
GAOFEN-1                
1 39150U 13018A   26171.31582846  .00000674  00000+0  10381-3 0  9997
2 39150  97.9090 243.3205 0015685 255.1744 104.7728 14.76540604708704
NEE-01 PEGASO           
1 39151U 13018B   26170.34231826  .00002563  00000+0  24786-3 0  9992
2 39151  98.1228 314.5632 0013307 152.2100 207.9832 14.93669357711025
PROBA-V                 
1 39159U 13021A   26171.21168463  .00000049  00000+0  39560-4 0  9991
2 39159  98.3584 149.6690 0005243 116.3951 243.7767 14.23597478681541
ARIRANG-5 (KOMPSAT-5)   
1 39227U 13042A   26171.29203763  .00000182  00000+0  17320-4 0  9999
2 39227  97.6202 357.9486 0005411 113.4388 246.7407 15.04494383704329
GONETS-M 5              
1 39249U 13048A   26171.25428998 -.00000052  00000+0 -44777-3 0  9997
2 39249  82.4835 341.4691 0016228 203.4311 156.6031 12.42891598579260
GONETS-M 7              
1 39251U 13048C   26171.29768729 -.00000016  00000+0 -18408-3 0  9995
2 39251  82.4902 344.3661 0017003 204.7121 155.3146 12.42914532579225
FENGYUN 3C              
1 39260U 13052A   26171.22412083  .00000042  00000+0  42299-4 0  9995
2 39260  98.4987 144.9595 0015064  19.3025 340.8717 14.15755651658997
CASSIOPE                
1 39265U 13055A   26171.24520318  .00046724 -44193-6  50857-3 0  9990
2 39265  80.9141  63.0075 0291711  52.1969 310.5289 15.25456799668139
APRIZESAT 7             
1 39416U 13066A   26171.30696573  .00000703  00000+0  75024-4 0  9996
2 39416  97.7709 124.4820 0035242 198.6791 161.3137 14.91569426681691
ZACUBE-1 (TSHEPISOSAT)  
1 39417U 13066B   26170.94018519  .00002355  00000+0  18525-3 0  9991
2 39417  97.8072 133.2914 0041152 238.1921 121.5293 15.01201080681142
APRIZESAT 8             
1 39425U 13066K   26171.10093910  .00000681  00000+0  79822-4 0  9995
2 39425  97.8221 118.5281 0044342 276.6414  82.9756 14.87657155680108
